OBJECT_NAME,OBJECT_ID,EPOCH,MEAN_MOTION,ECCENTRICITY,INCLINATION,RA_OF_ASC_NODE,ARG_OF_PERICENTER,MEAN_ANOMALY,EPHEMERIS_TYPE,CLASSIFICATION_TYPE,NORAD_CAT_ID,ELEMENT_SET_NO,REV_AT_EPOCH,BSTAR,MEAN_MOTION_DOT,MEAN_MOTION_DDOT
DUCHIFAT-1,2014-033M,2026-06-04T16:02:21.168384,15.62101054,.00048528,98.0472,213.0954,139.0185,221.1436,0,U,40021,999,65379,.10760804E-2,.95076E-3,0
NANOSATC-BR1,2014-033Q,2026-06-04T01:41:34.896192,15.31019931,.00030394,98.0721,186.3011,201.8474,158.2636,0,U,40024,999,65197,.62230174E-3,.18591E-3,0
QB50P1,2014-033R,2026-06-03T13:44:21.385536,15.18040602,.00070591,98.0967,164.7661,272.3380,87.7044,0,U,40025,999,65096,.48089613E-3,.9724E-4,0
DTUSAT-2,2014-033W,2026-06-04T05:25:19.031808,15.14842658,.00061437,98.0864,152.1319,280.7902,79.2636,0,U,40030,999,65072,.42187473E-3,.7774E-4,0
QB50P2,2014-033Y,2026-06-04T05:18:47.814336,15.14981717,.0006642,98.0753,151.2965,207.6654,152.4224,0,U,40032,999,65070,.40867E-3,.7558E-4,0
PERSEUS-M1,2014-033AF,2026-06-04T01:21:56.180736,14.95587199,.00110683,97.9641,98.9742,349.8422,10.2573,0,U,40039,999,64867,.24106212E-3,.2617E-4,0
POLYITAN-1,2014-033AJ,2026-06-03T23:56:55.767552,15.32773760,.00075376,98.0949,180.0160,180.7308,179.3922,0,U,40042,999,65157,.63302459E-3,.19995E-3,0
TIGRISAT,2014-033AK,2026-06-03T23:27:51.808608,14.85106187,.0050618,97.7821,305.2937,117.3579,243.2801,0,U,40043,999,64366,.31399118E-3,.2692E-4,0
CANX-4,2014-034C,2026-06-04T10:51:18.749376,14.81240766,.00139048,98.3135,30.2971,55.6030,304.6494,0,U,40055,999,64264,.16195794E-3,.1206E-4,0
CANX-5,2014-034D,2026-06-04T10:49:16.112352,14.81257887,.00139058,98.3138,30.3384,55.6451,304.6073,0,U,40056,999,63345,.16272442E-3,.1213E-4,0
GONETS-M 10,2014-036C,2026-06-04T21:58:57.226368,12.42945278,.00221699,82.5107,315.2978,166.5921,193.5752,0,U,40063,999,54072,.3330298E-3,.56E-6,0
METEOR-M 2,2014-037A,2026-06-04T21:32:43.128960,14.21458695,.00070573,98.5111,132.0718,73.7075,286.4879,0,U,40069,999,61757,.17242323E-3,.335E-5,0
DX1,2014-037C,2026-06-04T22:30:02.536704,14.89946863,.00063617,98.3870,116.8977,324.1778,35.9011,0,U,40071,999,64428,.15312356E-3,.1412E-4,0
UKUBE-1,2014-037F,2026-06-03T13:09:49.703616,15.13321645,.00016466,98.4235,156.3901,150.7111,209.4210,0,U,40074,999,64649,.57522925E-3,.10176E-3,0
GAOFEN-2,2014-049A,2026-06-04T22:43:02.256960,14.80886490,.00058935,98.0111,220.1650,275.8145,84.2396,0,U,40118,999,63742,.13388126E-3,.981E-5,0
BRITE-PL2 (HEWELIUSZ),2014-049B,2026-06-04T06:01:24.192480,14.94543231,.00149068,97.9085,267.1526,148.0147,212.1981,0,U,40119,999,63951,.27217109E-3,.2888E-4,0
CBERS 4,2014-079A,2026-06-04T23:29:25.124928,14.35505662,.00020825,98.3533,213.1927,76.6357,283.5061,0,U,40336,999,60220,.60450343E-4,.132E-5,0
SMAP,2015-003A,2026-06-04T21:48:45.453024,14.63355606,.00012556,98.1276,163.1774,90.6364,269.4982,0,U,40376,999,60582,.11156901E-3,.529E-5,0
GONETS-M 11,2015-020A,2026-06-04T22:24:34.189920,12.42876608,.00170927,82.4878,38.6276,31.4298,328.7799,0,U,40552,999,50721,.17967577E-3,.35E-6,0
GONETS-M 12,2015-020B,2026-06-04T23:42:30.506112,12.42890627,.00158667,82.4912,39.7144,16.9198,343.2408,0,U,40553,999,50721,-.90853147E-4,-.3E-7,0
GONETS-M 13,2015-020C,2026-06-04T23:04:01.513632,12.42869895,.00142397,82.4874,38.3498,2.7315,357.3840,0,U,40554,999,50718,.51856133E-3,.82E-6,0
DMC3-FM1,2015-032A,2026-06-04T22:45:03.771648,14.85723779,.00071239,97.6472,21.6023,90.3703,269.8329,0,U,40715,999,58809,.35419681E-4,.256E-5,0
DMC3-FM2,2015-032B,2026-06-04T21:39:54.195840,14.85727651,.00075369,97.6525,23.1239,95.6251,264.5824,0,U,40716,999,58808,.42084512E-4,.314E-5,0
DMC3-FM3,2015-032C,2026-06-04T22:13:22.221696,14.85719697,.00068013,97.6578,24.8917,95.2932,264.9060,0,U,40717,999,58809,.11497889E-3,.947E-5,0
CARBONITE 1 (CBNT-1),2015-032D,2026-06-04T23:23:35.232576,14.83547958,.00141445,97.6501,334.5531,340.8543,19.2139,0,U,40718,999,58753,.21895265E-3,.1755E-4,0
LILACSAT-2,2015-049K,2026-06-04T22:50:09.783168,15.51025712,.00053745,97.4655,192.3309,304.6664,55.4081,0,U,40908,999,59385,.34261756E-3,.19843E-3,0
