DUCHIFAT-1              
1 40021U 14033M   26155.66830056  .00095076  00000+0  10761-2 0  9994
2 40021  98.0472 213.0954 0004852 139.0185 221.1436 15.62101054653793
NANOSATC-BR1            
1 40024U 14033Q   26155.07054278  .00018591  00000+0  62230-3 0  9992
2 40024  98.0721 186.3011 0003039 201.8474 158.2636 15.31019931651972
QB50P1                  
1 40025U 14033R   26154.57246974  .00009724  00000+0  48090-3 0  9999
2 40025  98.0967 164.7661 0007059 272.3380  87.7044 15.18040602650962
DTUSAT-2                
1 40030U 14033W   26155.22591472  .00007774  00000+0  42187-3 0  9998
2 40030  98.0864 152.1319 0006143 280.7902  79.2636 15.14842658650725
QB50P2                  
1 40032U 14033Y   26155.22138674  .00007558  00000+0  40867-3 0  9994
2 40032  98.0753 151.2965 0006642 207.6654 152.4224 15.14981717650702
PERSEUS-M1              
1 40039U 14033AF  26155.05690024  .00002617  00000+0  24106-3 0  9993
2 40039  97.9641  98.9742 0011068 349.8422  10.2573 14.95587199648678
POLYITAN-1              
1 40042U 14033AJ  26154.99786768  .00019995  00000+0  63302-3 0  9998
2 40042  98.0949 180.0160 0007537 180.7308 179.3922 15.32773760651574
TIGRISAT                
1 40043U 14033AK  26154.97768297  .00002692  00000+0  31399-3 0  9991
2 40043  97.7821 305.2937 0050618 117.3579 243.2801 14.85106187643665
CANX-4                  
1 40055U 14034C   26155.45230034  .00001206  00000+0  16196-3 0  9990
2 40055  98.3135  30.2971 0013904  55.6030 304.6494 14.81240766642644
CANX-5                  
1 40056U 14034D   26155.45088093  .00001213  00000+0  16272-3 0  9990
2 40056  98.3138  30.3384 0013905  55.6451 304.6073 14.81257887633459
GONETS-M 10             
1 40063U 14036C   26155.91594012  .00000056  00000+0  33303-3 0  9992
2 40063  82.5107 315.2978 0022169 166.5921 193.5752 12.42945278540727
METEOR-M 2              
1 40069U 14037A   26155.89772140  .00000335  00000+0  17242-3 0  9990
2 40069  98.5111 132.0718 0007057  73.7075 286.4879 14.21458695617571
DX1                     
1 40071U 14037C   26155.93752936  .00001412  00000+0  15312-3 0  9992
2 40071  98.3870 116.8977 0006361 324.1778  35.9011 14.89946863644287
UKUBE-1                 
1 40074U 14037F   26154.54849194  .00010176  00000+0  57523-3 0  9991
2 40074  98.4235 156.3901 0001646 150.7111 209.4210 15.13321645646494
GAOFEN-2                
1 40118U 14049A   26155.94655390  .00000981  00000+0  13388-3 0  9995
2 40118  98.0111 220.1650 0005893 275.8145  84.2396 14.80886490637421
BRITE-PL2 (HEWELIUSZ)   
1 40119U 14049B   26155.25097445  .00002888  00000+0  27217-3 0  9995
2 40119  97.9085 267.1526 0014906 148.0147 212.1981 14.94543231639513
CBERS 4                 
1 40336U 14079A   26155.97876302  .00000132  00000+0  60450-4 0  9992
2 40336  98.3533 213.1927 0002082  76.6357 283.5061 14.35505662602202
SMAP                    
1 40376U 15003A   26155.90885941  .00000529  00000+0  11157-3 0  9995
2 40376  98.1276 163.1774 0001255  90.6364 269.4982 14.63355606605825
GONETS-M 11             
1 40552U 15020A   26155.93372905  .00000035  00000+0  17968-3 0  9992
2 40552  82.4878  38.6276 0017092  31.4298 328.7799 12.42876608507217
GONETS-M 12             
1 40553U 15020B   26155.98785308 -.00000003  00000+0 -90853-4 0  9995
2 40553  82.4912  39.7144 0015866  16.9198 343.2408 12.42890627507213
GONETS-M 13             
1 40554U 15020C   26155.96112863  .00000082  00000+0  51856-3 0  9998
2 40554  82.4874  38.3498 0014239   2.7315 357.3840 12.42869895507180
DMC3-FM1                
1 40715U 15032A   26155.94796032  .00000256  00000+0  35420-4 0  9997
2 40715  97.6472  21.6023 0007123  90.3703 269.8329 14.85723779588095
DMC3-FM2                
1 40716U 15032B   26155.90271060  .00000314  00000+0  42085-4 0  9993
2 40716  97.6525  23.1239 0007536  95.6251 264.5824 14.85727651588089
DMC3-FM3                
1 40717U 15032C   26155.92595164  .00000947  00000+0  11498-3 0  9995
2 40717  97.6578  24.8917 0006801  95.2932 264.9060 14.85719697588093
CARBONITE 1 (CBNT-1)    
1 40718U 15032D   26155.97471334  .00001755  00000+0  21895-3 0  9993
2 40718  97.6501 334.5531 0014144 340.8543  19.2139 14.83547958587532
LILACSAT-2              
1 40908U 15049K   26155.95150212  .00019843  00000+0  34262-3 0  9998
2 40908  97.4655 192.3309 0005374 304.6664  55.4081 15.51025712593856
